[{"OBJECT_NAME":"STARLINK-35867","OBJECT_ID":"2025-278A","EPOCH":"2026-03-09T19:34:56.492832","MEAN_MOTION":15.2759637,"ECCENTRICITY":0.0001499,"INCLINATION":43.0007,"RA_OF_ASC_NODE":114.0738,"ARG_OF_PERICENTER":279.4001,"MEAN_ANOMALY":80.6681,"EPHEMERIS_TYPE":0,"CLASSIFICATION_TYPE":"U","NORAD_CAT_ID":66791,"ELEMENT_SET_NO":999,"REV_AT_EPOCH":1522,"BSTAR":0.0012254482,"MEAN_MOTION_DOT":0.0003363,"MEAN_MOTION_DDOT":0},{"OBJECT_NAME":"DELTA 2 R\/B","OBJECT_ID":"1990-034B","EPOCH":"2026-03-09T11:50:38.100192","MEAN_MOTION":14.22012271,"ECCENTRICITY":0.04686634,"INCLINATION":22.7441,"RA_OF_ASC_NODE":150.4279,"ARG_OF_PERICENTER":275.616,"MEAN_ANOMALY":79.1052,"EPHEMERIS_TYPE":0,"CLASSIFICATION_TYPE":"U","NORAD_CAT_ID":20571,"ELEMENT_SET_NO":999,"REV_AT_EPOCH":84430,"BSTAR":0.00052085196,"MEAN_MOTION_DOT":4.065e-5,"MEAN_MOTION_DDOT":0}]
